ORBCOMM FM37            
1 33064U 08031E   25196.79419479  .00000712  00000+0  12145-3 0  9996
2 33064  48.4385 207.6281 0004635 142.3395  27.6803 14.79834792918289
ORBCOMM FM40            
1 33065U 08031F   25196.72995991  .00001096  00000+0  16335-3 0  9999
2 33065  48.4404 191.4896 0005780 155.3183  14.7058 14.82110407918390
VESSELSAT 1             
1 37840U 11058C   25196.59196845  .00000330  00000+0  35491-4 0  9998
2 37840  19.9622 282.0146 0013701 138.4641 221.6806 14.11357576710323
ORBCOMM FM109           
1 40086U 14040A   25197.51094266  .00000169  00000+0  72690-4 0  9997
2 40086  47.0021 237.8003 0000846 155.9893 204.1032 14.58203946585467
ORBCOMM FM107           
1 40087U 14040B   25197.19556160  .00000222  00000+0  83990-4 0  9993
2 40087  47.0038 240.2437 0000694 341.8907  18.1954 14.58278077585416
ORBCOMM FM106           
1 40088U 14040C   25197.33233796  .00000461  00000+0  10859-3 0  9995
2 40088  47.0611  59.3638 0017047 203.5099 156.5015 14.69488811587971
ORBCOMM FM111           
1 40089U 14040D   25196.92071220  .00001224  00000+0  16072-3 0  9993
2 40089  47.0024 267.6297 0030922 328.0523  31.8499 14.86407100594506
ORBCOMM FM104           
1 40090U 14040E   25196.94144091  .00000247  00000+0  92476-4 0  9991
2 40090  47.0053 275.3987 0016589 332.7795  27.2219 14.56674724584815
